[Satellite]
VERSION=1.1
NAME=ELECTRON KICK STAGE R/B
NICKNAME=ELECTRON KICK STAGE R/B
TLE1=1 54228U 22147B   22333.82306891  .00003420  00000+0  33392-3 0  9998
TLE2=2 54228  97.6523 335.8590 0012282 213.0329 147.0125 14.92993321  3740
STATUS=0
